ONEWEB-0331             
1 49198U 21083N   24117.77221973  .00000086  00000+0  18620-3 0  9991
2 49198  87.9125 131.0079 0002097  87.2823 272.8550 13.18687216127028
ONEWEB-0333             
1 49199U 21083P   24117.71072816 -.00000192  00000+0 -56148-3 0  9993
2 49199  87.8896 115.8164 0001773  92.4283 267.7049 13.13470199128321
ONEWEB-0334             
1 49200U 21083Q   24118.13422663  .00000146  00000+0  32629-3 0  9997
2 49200  87.9189  69.8904 0001239  98.1890 261.9384 13.20772474134980
ONEWEB-0335             
1 49201U 21083R   24117.93449868 -.00000212  00000+0 -61427-3 0  9995
2 49201  87.8895 115.7607 0002129  89.3137 270.8236 13.13468646128365
ONEWEB-0336             
1 49202U 21083S   24117.52346456  .00000453  00000+0  12060-2 0  9993
2 49202  87.8895 115.8390 0001766  88.6497 271.4834 13.13470665128302
ONEWEB-0337             
1 49203U 21083T   24118.21844833  .00000230  00000+0  59444-3 0  9994
2 49203  87.8895 115.6994 0002114  88.9749 271.1622 13.13468613129697
ONEWEB-0338             
1 49204U 21083U   24118.14052711  .00000033  00000+0  49643-4 0  9995
2 49204  87.9193  69.8699 0001807  95.2436 264.8904 13.20768139135013
ONEWEB-0339             
1 49205U 21083V   24117.92498158 -.00000028  00000+0 -11178-3 0  9997
2 49205  87.8891 115.7543 0002122  91.7976 268.3397 13.13469343128337
